{
    "week": 287,
    "satellites": [
        {
            "Name": "GSAT0218 (GALILEO 22)",
            "Line1": "1 43058U 17079D   24280.31648410  .00000016  00000+0  00000+0 0  9992",
            "Line2": "2 43058  55.2959 238.5345 0004818 279.1223  80.7922  1.70473993 42438",
            "SatelliteNumber": "43058",
            "Classification": "U",
            "LaunchYear": "17",
            "LaunchNumber": "079",
            "PieceOfLaunch": "D",
            "EpochYear": "24",
            "EpochDay": 280.3164841,
            "FirstDerivativeMeanMotion": 1.6e-07,
            "SecondDerivativeMeanMotion": "00000+0",
            "BSTAR": "00000+0",
            "SetNumber": "999",
            "Inclination": 55.2959,
            "RAAN": 238.5345,
            "Eccentricity": 0.0004818,
            "ArgumentOfPerigee": 279.1223,
            "MeanAnomaly": 80.7922,
            "MeanMotion": 1.70473993,
            "RevolutionNumber": "4243"
        },
        {
            "Name": "GSAT0221 (GALILEO 25)",
            "Line1": "1 43564U 18060A   24279.04457424 -.00000088  00000+0  00000+0 0  9996",
            "Line2": "2 43564  57.2995 358.5131 0004586 261.2188  98.7822  1.70476338 38600",
            "SatelliteNumber": "43564",
            "Classification": "U",
            "LaunchYear": "18",
            "LaunchNumber": "060",
            "PieceOfLaunch": "A",
            "EpochYear": "24",
            "EpochDay": 279.04457424,
            "FirstDerivativeMeanMotion": -8.8e-07,
            "SecondDerivativeMeanMotion": "00000+0",
            "BSTAR": "00000+0",
            "SetNumber": "999",
            "Inclination": 57.2995,
            "RAAN": 358.5131,
            "Eccentricity": 0.0004586,
            "ArgumentOfPerigee": 261.2188,
            "MeanAnomaly": 98.7822,
            "MeanMotion": 1.70476338,
            "RevolutionNumber": "3860"
        },
        {
            "Name": "GSAT0222 (GALILEO 26)",
            "Line1": "1 43565U 18060B   24280.43642204 -.00000083  00000+0  00000+0 0  9999",
            "Line2": "2 43565  57.3030 358.4776 0004903 235.9659 124.0427  1.70475939 38655",
            "SatelliteNumber": "43565",
            "Classification": "U",
            "LaunchYear": "18",
            "LaunchNumber": "060",
            "PieceOfLaunch": "B",
            "EpochYear": "24",
            "EpochDay": 280.43642204,
            "FirstDerivativeMeanMotion": -8.3e-07,
            "SecondDerivativeMeanMotion": "00000+0",
            "BSTAR": "00000+0",
            "SetNumber": "999",
            "Inclination": 57.303,
            "RAAN": 358.4776,
            "Eccentricity": 0.0004903,
            "ArgumentOfPerigee": 235.9659,
            "MeanAnomaly": 124.0427,
            "MeanMotion": 1.70475939,
            "RevolutionNumber": "3865"
        },
        {
            "Name": "GSAT0219 (GALILEO 23)",
            "Line1": "1 43566U 18060C   24278.89838022 -.00000089  00000+0  00000+0 0  9998",
            "Line2": "2 43566  57.3022 358.5208 0004413 268.6480  91.3541  1.70476202 38612",
            "SatelliteNumber": "43566",
            "Classification": "U",
            "LaunchYear": "18",
            "LaunchNumber": "060",
            "PieceOfLaunch": "C",
            "EpochYear": "24",
            "EpochDay": 278.89838022,
            "FirstDerivativeMeanMotion": -8.9e-07,
            "SecondDerivativeMeanMotion": "00000+0",
            "BSTAR": "00000+0",
            "SetNumber": "999",
            "Inclination": 57.3022,
            "RAAN": 358.5208,
            "Eccentricity": 0.0004413,
            "ArgumentOfPerigee": 268.648,
            "MeanAnomaly": 91.3541,
            "MeanMotion": 1.70476202,
            "RevolutionNumber": "3861"
        },
        {
            "Name": "GSAT0220 (GALILEO 24)",
            "Line1": "1 43567U 18060D   24280.29225275 -.00000084  00000+0  00000+0 0  9991",
            "Line2": "2 43567  57.3018 358.4841 0003986 261.9599  98.0499  1.70476289 38623",
            "SatelliteNumber": "43567",
            "Classification": "U",
            "LaunchYear": "18",
            "LaunchNumber": "060",
            "PieceOfLaunch": "D",
            "EpochYear": "24",
            "EpochDay": 280.29225275,
            "FirstDerivativeMeanMotion": -8.4e-07,
            "SecondDerivativeMeanMotion": "00000+0",
            "BSTAR": "00000+0",
            "SetNumber": "999",
            "Inclination": 57.3018,
            "RAAN": 358.4841,
            "Eccentricity": 0.0003986,
            "ArgumentOfPerigee": 261.9599,
            "MeanAnomaly": 98.0499,
            "MeanMotion": 1.70476289,
            "RevolutionNumber": "3862"
        },
        {
            "Name": "GSAT0223 (GALILEO 27)",
            "Line1": "1 49809U 21116A   24278.97132678 -.00000088  00000+0  00000+0 0  9992",
            "Line2": "2 49809  57.2924 358.4131 0003894 211.0996 148.7320  1.70476516 17604",
            "SatelliteNumber": "49809",
            "Classification": "U",
            "LaunchYear": "21",
            "LaunchNumber": "116",
            "PieceOfLaunch": "A",
            "EpochYear": "24",
            "EpochDay": 278.97132678,
            "FirstDerivativeMeanMotion": -8.8e-07,
            "SecondDerivativeMeanMotion": "00000+0",
            "BSTAR": "00000+0",
            "SetNumber": "999",
            "Inclination": 57.2924,
            "RAAN": 358.4131,
            "Eccentricity": 0.0003894,
            "ArgumentOfPerigee": 211.0996,
            "MeanAnomaly": 148.732,
            "MeanMotion": 1.70476516,
            "RevolutionNumber": "1760"
        },
        {
            "Name": "GSAT0224 (GALILEO 28)",
            "Line1": "1 49810U 21116B   24279.32387472 -.00000087  00000+0  00000+0 0  9997",
            "Line2": "2 49810  57.2931 358.4020 0003156 207.6133 121.1064  1.70476578 17637",
            "SatelliteNumber": "49810",
            "Classification": "U",
            "LaunchYear": "21",
            "LaunchNumber": "116",
            "PieceOfLaunch": "B",
            "EpochYear": "24",
            "EpochDay": 279.32387472,
            "FirstDerivativeMeanMotion": -8.7e-07,
            "SecondDerivativeMeanMotion": "00000+0",
            "BSTAR": "00000+0",
            "SetNumber": "999",
            "Inclination": 57.2931,
            "RAAN": 358.402,
            "Eccentricity": 0.0003156,
            "ArgumentOfPerigee": 207.6133,
            "MeanAnomaly": 121.1064,
            "MeanMotion": 1.70476578,
            "RevolutionNumber": "1763"
        },
        {
            "Name": "GSAT0225 (GALILEO 29)",
            "Line1": "1 59598U 24079A   24280.27063205  .00000056  00000+0  00000+0 0  9998",
            "Line2": "2 59598  54.7561 118.4001 0002387 159.3920  21.2148  1.70474569  2766",
            "SatelliteNumber": "59598",
            "Classification": "U",
            "LaunchYear": "24",
            "LaunchNumber": "079",
            "PieceOfLaunch": "A",
            "EpochYear": "24",
            "EpochDay": 280.27063205,
            "FirstDerivativeMeanMotion": 5.6e-07,
            "SecondDerivativeMeanMotion": "00000+0",
            "BSTAR": "00000+0",
            "SetNumber": "999",
            "Inclination": 54.7561,
            "RAAN": 118.4001,
            "Eccentricity": 0.0002387,
            "ArgumentOfPerigee": 159.392,
            "MeanAnomaly": 21.2148,
            "MeanMotion": 1.70474569,
            "RevolutionNumber": "276"
        },
        {
            "Name": "GSAT0227 (GALILEO 30)",
            "Line1": "1 59600U 24079C   24280.15981037  .00000056  00000+0  00000+0 0  9991",
            "Line2": "2 59600  54.7513 118.4033 0003622 109.9259 250.1948  1.70474454  2811",
            "SatelliteNumber": "59600",
            "Classification": "U",
            "LaunchYear": "24",
            "LaunchNumber": "079",
            "PieceOfLaunch": "C",
            "EpochYear": "24",
            "EpochDay": 280.15981037,
            "FirstDerivativeMeanMotion": 5.6e-07,
            "SecondDerivativeMeanMotion": "00000+0",
            "BSTAR": "00000+0",
            "SetNumber": "999",
            "Inclination": 54.7513,
            "RAAN": 118.4033,
            "Eccentricity": 0.0003622,
            "ArgumentOfPerigee": 109.9259,
            "MeanAnomaly": 250.1948,
            "MeanMotion": 1.70474454,
            "RevolutionNumber": "281"
        },
        {
            "Name": "GSAT0232 (GALILEO 32)",
            "Line1": "1 61182U 24167A   24280.21941923  .00000016  00000+0  00000+0 0  9990",
            "Line2": "2 61182  55.4079 238.3008 0017121 273.1755  86.5981  1.73177071   311",
            "SatelliteNumber": "61182",
            "Classification": "U",
            "LaunchYear": "24",
            "LaunchNumber": "167",
            "PieceOfLaunch": "A",
            "EpochYear": "24",
            "EpochDay": 280.21941923,
            "FirstDerivativeMeanMotion": 1.6e-07,
            "SecondDerivativeMeanMotion": "00000+0",
            "BSTAR": "00000+0",
            "SetNumber": "999",
            "Inclination": 55.4079,
            "RAAN": 238.3008,
            "Eccentricity": 0.0017121,
            "ArgumentOfPerigee": 273.1755,
            "MeanAnomaly": 86.5981,
            "MeanMotion": 1.73177071,
            "RevolutionNumber": "31"
        }
    ]
}